OSCAR 7 (AO-7)          
1 07530U 74089B   26204.28001248 -.00000040  00000+0  41374-4 0  9999
2 07530 101.9909 217.9030 0012609  63.4131 306.8461 12.53698643365047
PHASE 3B (AO-10)        
1 14129U 83058B   26203.81462469  .00000116  00000+0  00000+0 0  9990
2 14129  25.9436 213.6999 5998946 125.4549 306.1498  2.05869117296228
UOSAT 2 (UO-11)         
1 14781U 84021B   26203.25715222  .00001166  00000+0  12393-3 0  9999
2 14781  97.8082 168.4468 0009118  71.8134 288.4076 14.90861576262357
LUSAT (LO-19)           
1 20442U 90005G   26204.53133676  .00000085  00000+0  47158-4 0  9995
2 20442  98.8846 227.3370 0012690  99.0495 261.2126 14.34132489907606
EYESAT A (AO-27)        
1 22825U 93061C   26204.15037507  .00000058  00000+0  39247-4 0  9991
2 22825  98.6861 271.5473 0008293   3.0265 357.0967 14.30950552712142
ITAMSAT (IO-26)         
1 22826U 93061D   26204.60836896  .00000050  00000+0  35795-4 0  9996
2 22826  98.6808 271.9263 0008435 344.3180  15.7740 14.31378421712529
RADIO ROSTO (RS15)      
1 23439U 94085A   26204.56719426 -.00000026  00000+0  46095-3 0  9996
2 23439  64.8138 244.3804 0157238 357.1707   2.8314 11.27583677300002
JAS-2 (FO-29)           
1 24278U 96046B   26204.31628134 -.00000042  00000+0 -59208-5 0  9996
2 24278  98.5215  48.2358 0349955   2.8840 357.4212 13.53275816478051
TECHSAT 1B (GO-32)      
1 25397U 98043D   26204.45017931  .00000045  00000+0  39520-4 0  9995
2 25397  99.0092 198.1273 0002334 101.8892 258.2548 14.24434535456496
ISS (ZARYA)             
1 25544U 98067A   26204.24989916  .00009534  00000+0  18022-3 0  9998
2 25544  51.6313 121.6296 0006905 328.4486  31.6087 15.49111598577348
PCSAT (NO-44)           
1 26931U 01043C   26204.54861200  .00000111  00000+0  72290-4 0  9995
2 26931  67.0505 150.2240 0005843 267.3711  92.6722 14.31967517295656
SAUDISAT 1C (SO-50)     
1 27607U 02058C   26204.09590113  .00000878  00000+0  12088-3 0  9993
2 27607  64.5523  17.8775 0074285 255.8289 103.4556 14.83110516269785
CUTE-1 (CO-55)          
1 27844U 03031E   26204.00389230  .00000238  00000+0  12202-3 0  9993
2 27844  98.6747 212.1136 0010851  82.6312 277.6100 14.24355144196777
CUBESAT XI-IV (CO-57)   
1 27848U 03031J   26204.01036090  .00000205  00000+0  10894-3 0  9990
2 27848  98.6778 211.8037 0010712  99.0689 261.1702 14.23637690196477
MOZHAETS 4 (RS22)       
1 27939U 03042A   26204.61538556  .00000544  00000+0  91959-4 0  9991
2 27939  98.3486  30.0064 0011866 147.3434 302.8812 14.73523572220918
CUBESAT XI-V            
1 28895U 05043F   26202.37477685  .00000932  00000+0  15414-3 0  9994
2 28895  98.3024 358.7230 0015344  97.2573 263.0378 14.72712744106788
CUTE-1.7+APD II (CO-65) 
1 32785U 08021C   26204.50585221  .00005372  00000+0  33682-3 0  9999
2 32785  97.8296 186.6930 0006980 264.2054  95.8378 15.09754568990678
SEEDS II (CO-66)        
1 32791U 08021J   26204.41936485  .00018972  00000+0  58050-3 0  9994
2 32791  97.7535 204.0816 0003920 140.5450 219.6077 15.33884906992845
YUBILEINY (RS30)        
1 32953U 08025A   26204.55503688 -.00000042  00000+0 -37416-3 0  9992
2 32953  82.5067 332.8178 0018843 229.8223 130.1208 12.43180774824215
KKS-1 (KISEKI)          
1 33499U 09002H   26204.55237998  .00001081  00000+0  13912-3 0  9999
2 33499  98.1169 127.5703 0008098 161.9361 198.2141 14.83204132941582
SWISSCUBE               
1 35932U 09051B   26204.49750961  .00000830  00000+0  17327-3 0  9995
2 35932  98.3998 113.0137 0008112  97.1181 263.0943 14.62542294894462
BEESAT-1                
1 35933U 09051C   26204.45751221  .00000681  00000+0  14632-3 0  9992
2 35933  98.3926 112.5322 0006472 108.5434 251.6470 14.61771462894489
ITUPSAT1                
1 35935U 09051E   26204.27468562  .00000634  00000+0  14082-3 0  9994
2 35935  98.4011 111.4996 0008514 120.7967 239.4072 14.60487446894003
XIWANG-1 (HOPE-1)       
1 36122U 09072B   26204.57145675 -.00000495  00000+0 -11808-2 0  9995
2 36122 100.4040 157.8254 0007786 146.2980 213.8630 13.16438329797797
O/OREOS (USA 219)       
1 37224U 10062C   26204.42499453  .00001789  00000+0  17393-3 0  9991
2 37224  71.9706 358.2425 0014554 349.2914  10.7944 14.93874898122056
JUGNU                   
1 37839U 11058B   26204.02255512  .00000401  00000+0  70106-4 0  9993
2 37839  19.9608  90.7073 0018653 112.3991  15.7019 14.13785262764100
SRMSAT                  
1 37841U 11058D   26204.33651532  .00000363  00000+0  53261-4 0  9992
2 37841  19.9701 200.6646 0011560 241.2167 146.8753 14.11582322762932
STRAND-1                
1 39090U 13009E   26204.05022801  .00000241  00000+0  95167-4 0  9994
2 39090  98.3941  23.4053 0009729 120.1275 240.0877 14.37182344702216
ZACUBE-1 (TSHEPISOSAT)  
1 39417U 13066B   26204.33245206  .00003415  00000+0  26445-3 0  9995
2 39417  97.7990 166.8439 0044073 129.2358 231.2791 15.01362379686150
GOMX-1                  
1 39430U 13066Q   26204.61419931  .00001024  00000+0  16024-3 0  9995
2 39430  97.6472  42.7787 0127518 321.0725  38.1351 14.69556095675262
